OBJECT_NAME,OBJECT_ID,EPOCH,MEAN_MOTION,ECCENTRICITY,INCLINATION,RA_OF_ASC_NODE,ARG_OF_PERICENTER,MEAN_ANOMALY,EPHEMERIS_TYPE,CLASSIFICATION_TYPE,NORAD_CAT_ID,ELEMENT_SET_NO,REV_AT_EPOCH,BSTAR,MEAN_MOTION_DOT,MEAN_MOTION_DDOT
STARLINK-35702,2025-281AE,2026-04-22T22:35:10.990752,15.27610655,.00010258,43.0014,93.5200,234.3473,125.7283,0,U,66876,999,2294,.74444209E-3,.20299E-3,0
STARLINK-35866,2025-283A,2026-04-23T03:44:56.950080,15.30199711,.00012957,53.1597,177.5212,69.2776,290.8364,0,U,66878,999,2265,.47946708E-3,.13868E-3,0
STARLINK-35749,2025-283B,2026-04-23T03:28:13.865952,15.30205590,.00016369,53.1573,177.4488,81.2978,278.8208,0,U,66879,999,2265,.65191788E-3,.19002E-3,0
STARLINK-35844,2025-283C,2026-04-23T03:35:49.431552,15.30204221,.00011838,53.1565,177.4837,67.0927,293.0199,0,U,66880,999,2265,.18185866E-3,.5031E-4,0
STARLINK-35860,2025-283D,2026-04-23T04:53:09.740544,15.30202849,.00010343,53.1574,177.1056,97.4572,262.6546,0,U,66881,999,2266,.3046783E-3,.8676E-4,0
STARLINK-35912,2025-283E,2026-04-23T04:38:08.079648,15.30196694,.00013331,53.1579,177.7515,79.9696,280.1455,0,U,66882,999,2265,.40400825E-3,.11624E-3,0
STARLINK-35947,2025-283F,2026-04-22T11:20:30.408288,15.30208038,.00008788,53.1567,181.0782,71.7440,288.3656,0,U,66883,999,2256,.66712096E-3,.19456E-3,0
STARLINK-36057,2025-283G,2026-04-22T11:11:23.363232,15.30194846,.00012155,53.1579,181.0344,90.0846,270.0294,0,U,66884,999,2254,.45795745E-3,.13226E-3,0
STARLINK-35954,2025-283H,2026-04-21T11:45:08.777088,15.30218858,.00011445,53.1549,185.6050,82.3043,277.8087,0,U,66885,999,2239,.41588541E-3,.11985E-3,0
STARLINK-35900,2025-283J,2026-04-23T04:15:20.244960,15.30207022,.00018894,53.1572,177.6478,112.6960,247.4241,0,U,66886,999,2265,.67233149E-3,.1961E-3,0
STARLINK-35925,2025-283K,2026-04-23T04:10:46.680960,15.30207473,.00015009,53.1588,177.6312,91.5519,268.5654,0,U,66887,999,2265,.44252117E-3,.12773E-3,0
STARLINK-35919,2025-283L,2026-04-23T04:06:13.208544,15.30204086,.00017833,53.1579,177.6114,92.2003,267.9202,0,U,66888,999,2265,.49730997E-3,.144E-3,0
STARLINK-35852,2025-283M,2026-04-22T21:45:26.538624,15.30212021,.0001653,53.1579,178.8031,88.4675,271.6515,0,U,66889,999,2261,.49048E-3,.14201E-3,0
STARLINK-35885,2025-283N,2026-04-22T21:40:53.373792,15.30200309,.0001148,53.1591,178.7833,99.3957,260.7173,0,U,66890,999,2261,.34175E-3,.9776E-4,0
STARLINK-35855,2025-283P,2026-04-22T21:36:20.996928,15.30203222,.0001413,53.1599,178.7668,87.0997,273.0166,0,U,66891,999,2261,.47587E-3,.13762E-3,0
STARLINK-35883,2025-283Q,2026-04-23T03:47:59.063136,15.30204665,.00013215,53.1592,177.5355,75.1870,284.9277,0,U,66892,999,2265,.5507785E-3,.15991E-3,0
STARLINK-36033,2025-283R,2026-04-23T04:48:46.146240,15.30202259,.00008245,53.1561,177.7961,65.7125,294.3962,0,U,66893,999,2265,.3973573E-3,.11429E-3,0
STARLINK-35718,2025-283S,2026-04-22T21:22:39.585216,15.30190848,.0001245,53.1602,178.7047,85.5201,274.5942,0,U,66894,999,2261,.41622E-3,.11984E-3,0
STARLINK-35971,2025-283T,2026-04-22T11:18:59.151744,15.30187435,.00009112,53.1571,181.0683,71.1969,288.9131,0,U,66895,999,2254,.61033291E-3,.17753E-3,0
STARLINK-35791,2025-283U,2026-04-23T04:57:43.530048,15.30207761,.0001322,53.1557,177.1225,92.0335,268.0817,0,U,66896,999,2266,.82404036E-3,.24132E-3,0
STARLINK-36079,2025-283V,2026-04-21T11:39:04.180320,15.30219372,.00011637,53.1562,185.5769,81.0446,279.0686,0,U,66897,999,2238,.55870367E-3,.16234E-3,0
STARLINK-36065,2025-283W,2026-04-21T10:01:58.238688,15.30202229,.00011557,53.1565,185.8648,59.3060,300.8055,0,U,66898,999,2238,.70154602E-3,.20477E-3,0
STARLINK-36064,2025-283X,2026-04-22T22:02:09.564864,15.30212340,.0000626,53.1591,178.8747,80.0331,280.0740,0,U,66899,999,2261,.714E-3,.20855E-3,0
STARLINK-36074,2025-283Y,2026-04-23T04:13:49.228608,15.30217832,.00024004,53.1567,177.6395,98.7516,261.3756,0,U,66900,999,2265,.6063384E-3,.17652E-3,0
STARLINK-36043,2025-283Z,2026-04-22T21:48:29.015424,15.30205413,.0000713,53.1596,178.8142,111.7613,248.3463,0,U,66901,999,2261,.65648E-3,.19137E-3,0
STARLINK-35983,2025-283AA,2026-04-23T04:00:08.309376,15.30207820,.00017346,53.1580,177.5807,96.3988,263.7211,0,U,66902,999,2265,.53653834E-3,.15569E-3,0
STARLINK-36077,2025-283AB,2026-04-23T03:55:35.047776,15.30199427,.00013092,53.1587,177.5635,85.6849,274.4302,0,U,66903,999,2265,.30424271E-3,.8662E-4,0
STARLINK-36059,2025-283AC,2026-04-22T21:34:48.629280,15.30192198,.0001293,53.1594,178.7546,85.5854,274.5294,0,U,66904,999,2261,.35255E-3,.10094E-3,0
STARLINK-36075,2025-283AD,2026-04-23T04:47:14.983008,15.30201319,.00011501,53.1563,177.7872,89.8276,270.2856,0,U,66905,999,2265,.44251506E-3,.1277E-3,0
STARLINK-35945,2025-286A,2026-04-22T19:56:07.785024,15.30204862,.0001318,53.1590,153.5097,80.2928,279.8221,0,U,66925,999,2217,.22649E-3,.6356E-4,0
STARLINK-35942,2025-286B,2026-04-23T06:25:37.698816,15.30202947,.00009758,53.1569,151.2656,84.3605,275.7507,0,U,66926,999,2224,.18916071E-3,.5248E-4,0
STARLINK-35943,2025-286C,2026-04-23T02:06:15.566688,15.30180051,.00017188,53.1591,152.2711,86.0637,274.0560,0,U,66927,999,2221,.47041186E-3,.1359E-3,0
STARLINK-35944,2025-286D,2026-04-22T20:17:23.925120,15.30190710,.0000895,53.1597,153.6032,109.8190,250.2907,0,U,66928,999,2217,.77451E-3,.22643E-3,0
STARLINK-36169,2025-286E,2026-04-23T02:59:17.277792,15.30218572,.00010424,53.1568,151.7903,58.4569,301.6533,0,U,66929,999,2222,.47183789E-3,.13649E-3,0
STARLINK-36206,2025-286F,2026-04-22T20:18:57.356352,15.30153483,.0001841,53.1582,153.6065,99.5536,260.5673,0,U,66930,999,2216,.27924E-3,.7908E-4,0
STARLINK-36130,2025-286G,2026-04-23T03:28:11.168544,15.30206097,.00015108,53.1582,151.9200,82.3588,277.7585,0,U,66931,999,2222,.41557137E-3,.11971E-3,0
STARLINK-36177,2025-286H,2026-04-23T02:48:48.864672,15.30202958,.00013332,53.1592,152.4550,99.4187,260.6965,0,U,66932,999,2221,.56060051E-3,.16282E-3,0
STARLINK-36157,2025-286J,2026-04-23T02:15:23.380704,15.30199434,.00013943,53.1592,152.3120,78.4515,281.6642,0,U,66933,999,2221,.52351832E-3,.15177E-3,0
STARLINK-36153,2025-286K,2026-04-23T03:08:24.344448,15.30197857,.00007381,53.1565,151.8286,58.3490,301.7582,0,U,66934,999,2222,-.39272692E-4,-.1522E-4,0
STARLINK-36127,2025-286L,2026-04-22T19:47:00.911904,15.30197424,.00013155,53.1581,153.4748,84.4702,275.6448,0,U,66935,999,2217,.22996902E-3,.6457E-4,0
STARLINK-36160,2025-286M,2026-04-23T02:24:29.926368,15.30198333,.00012254,53.1588,152.3492,87.4235,272.6906,0,U,66936,999,2220,.19621469E-3,.5456E-4,0
STARLINK-36165,2025-286N,2026-04-22T06:23:04.800192,15.30207149,.00011776,53.1582,156.3820,79.6753,280.4380,0,U,66937,999,2208,.3076274E-3,.8765E-4,0
STARLINK-36155,2025-286P,2026-04-23T02:21:27.608544,15.30198973,.0001202,53.1596,152.3339,82.3042,277.8095,0,U,66938,999,2221,.28526156E-3,.8098E-4,0
STARLINK-36154,2025-286Q,2026-04-22T19:42:27.024768,15.30201737,.00004064,53.1587,153.4530,97.3021,262.8026,0,U,66939,999,2217,.28959674E-3,.8228E-4,0
STARLINK-36121,2025-286R,2026-04-23T06:30:11.236896,15.30203729,.00010529,53.1568,151.2822,76.6857,283.4261,0,U,66940,999,2224,.28284817E-3,.8028E-4,0
STARLINK-36088,2025-286S,2026-04-22T19:51:34.227072,15.30197973,.00011414,53.1590,153.4866,78.7689,281.3440,0,U,66941,999,2217,.30587273E-3,.871E-4,0
STARLINK-36100,2025-286T,2026-04-23T03:12:57.995712,15.30209961,.00007863,53.1568,151.8502,21.7497,338.3537,0,U,66942,999,2215,.36374501E-3,.10433E-3,0
STARLINK-36109,2025-286U,2026-04-23T02:54:43.765632,15.30206483,.00011521,53.1573,151.7692,73.9929,286.1199,0,U,66943,999,2215,.45295811E-3,.13082E-3,0
STARLINK-36112,2025-286V,2026-04-23T02:29:03.546528,15.30209203,.0001598,53.1591,152.3660,95.3606,264.7577,0,U,66944,999,2221,.62779781E-3,.18285E-3,0
STARLINK-36110,2025-286W,2026-04-21T09:58:52.963392,15.30210638,.00012698,53.1571,160.3211,84.3014,275.8132,0,U,66945,999,2195,.5458637E-3,.15848E-3,0
STARLINK-36115,2025-286X,2026-04-23T02:19:56.410752,15.30203169,.00013936,53.1590,152.3277,84.1920,275.9240,0,U,66946,999,2221,.33395119E-3,.9545E-4,0
STARLINK-36089,2025-286Y,2026-04-23T07:23:22.592832,15.30218831,.00013646,53.1591,151.5063,51.9377,308.1746,0,U,66947,999,2224,.76725838E-3,.22447E-3,0
STARLINK-36116,2025-286Z,2026-04-22T19:54:36.693504,15.30198445,.00014133,53.1595,153.5013,83.8585,276.2576,0,U,66948,999,2216,.20322913E-3,.5664E-4,0
STARLINK-36096,2025-286AA,2026-04-23T03:03:50.865984,15.30221981,.00011249,53.1578,151.8081,102.0728,258.0399,0,U,66949,999,2222,.40927533E-3,.1179E-3,0
STARLINK-36111,2025-286AB,2026-04-22T20:14:21.494112,15.30209145,.0000419,53.1594,153.5810,194.3381,165.7608,0,U,66950,999,2217,.53161E-3,.15423E-3,0
STARLINK-35999,2025-286AC,2026-04-22T20:00:41.304096,15.30202579,.0001336,53.1593,153.5250,79.8936,280.2216,0,U,66951,999,2217,.29145E-3,.8283E-4,0
STARLINK-36122,2025-286AD,2026-04-23T02:50:19.980384,15.30200537,.00012933,53.1569,152.4557,87.6071,272.5077,0,U,66952,999,2221,.45238196E-3,.13063E-3,0
STARLINK-35887,2025-288A,2026-04-23T02:51:59.061312,15.27585455,.0001453,42.9993,132.4299,258.7757,101.2931,0,U,66959,999,2208,.54139306E-3,.14668E-3,0
STARLINK-35879,2025-288B,2026-04-23T01:38:11.381856,15.27574817,.00019176,42.9981,132.9009,276.4545,83.6088,0,U,66960,999,2207,.815609E-3,.22246E-3,0
STARLINK-35761,2025-288C,2026-04-23T02:22:22.837152,15.27587882,.00007442,43.0032,132.2722,291.2723,68.8050,0,U,66961,999,2208,.36724207E-3,.986E-4,0
STARLINK-35874,2025-288D,2026-04-23T02:17:03.398208,15.27600992,.00012157,43.0025,133.1036,285.9830,74.0888,0,U,66962,999,2207,.40542948E-3,.10918E-3,0
STARLINK-36133,2025-288E,2026-04-23T01:40:01.953120,15.27561443,.00018508,42.9962,132.9062,285.0199,75.0447,0,U,66963,999,2207,.73402825E-3,.1998E-3,0
STARLINK-36104,2025-288F,2026-04-22T18:13:18.177888,15.27581971,.00015946,43.0019,134.8876,274.9072,85.1597,0,U,66964,999,2202,.40105314E-3,.10791E-3,0
STARLINK-36067,2025-288G,2026-04-22T18:48:15.677856,15.27586849,.00010974,43.0029,134.2049,241.8474,118.2267,0,U,66965,999,2203,.70480537E-3,.19187E-3,0
